[
    {
        "Altitude(m)": 717878.149652581,
        "Argument of Periapsis(deg)": 0.009112096949301655,
        "Eccentricity": 0.0,
        "Inclination(deg)": 45.0,
        "Latitude(deg)": -45.144322392849105,
        "Longitude(deg)": 65.87432105010078,
        "Mean Anomaly(deg)": -88.95522668201536,
        "RAAN(deg)": 254.99139844683344,
        "Satellite Name": "Constellation 1 1138",
        "Satellite Number": 1138,
        "Semi-Major Axis(m)": 7083131.272910544,
        "Time(s)": 152
    },
    {
        "Altitude(m)": 717877.6710411585,
        "Argument of Periapsis(deg)": 0.009172044955547059,
        "Eccentricity": 0.0,
        "Inclination(deg)": 45.0,
        "Latitude(deg)": -45.143177324582894,
        "Longitude(deg)": 65.95581905556573,
        "Mean Anomaly(deg)": -88.8945255417654,
        "RAAN(deg)": 254.9913418576679,
        "Satellite Name": "Constellation 1 1138",
        "Satellite Number": 1138,
        "Semi-Major Axis(m)": 7083131.272910544,
        "Time(s)": 153
    },
    {
        "Altitude(m)": 717877.1660394529,
        "Argument of Periapsis(deg)": 0.009231992961792466,
        "Eccentricity": 0.0,
        "Inclination(deg)": 45.0,
        "Latitude(deg)": -45.14196811835375,
        "Longitude(deg)": 66.03731354553834,
        "Mean Anomaly(deg)": -88.83382440151556,
        "RAAN(deg)": 254.99128526850228,
        "Satellite Name": "Constellation 1 1138",
        "Satellite Number": 1138,
        "Semi-Major Axis(m)": 7083131.272910544,
        "Time(s)": 154
    },
    {
        "Altitude(m)": 717876.6346493013,
        "Argument of Periapsis(deg)": 0.009291940968037872,
        "Eccentricity": 0.0,
        "Inclination(deg)": 45.0,
        "Latitude(deg)": -45.140694779513126,
        "Longitude(deg)": 66.1188043287842,
        "Mean Anomaly(deg)": -88.77312326126571,
        "RAAN(deg)": 254.99122867933673,
        "Satellite Name": "Constellation 1 1138",
        "Satellite Number": 1138,
        "Semi-Major Axis(m)": 7083131.272910544,
        "Time(s)": 155
    },
    {
        "Altitude(m)": 717876.0768726558,
        "Argument of Periapsis(deg)": 0.009351888974283276,
        "Eccentricity": 0.0,
        "Inclination(deg)": 45.0,
        "Latitude(deg)": -45.13935731369594,
        "Longitude(deg)": 66.2002910460384,
        "Mean Anomaly(deg)": -88.71242212101575,
        "RAAN(deg)": 254.99117209017118,
        "Satellite Name": "Constellation 1 1138",
        "Satellite Number": 1138,
        "Semi-Major Axis(m)": 7083131.272910544,
        "Time(s)": 156
    },
    {
        "Altitude(m)": 717875.4927115535,
        "Argument of Periapsis(deg)": 0.00941183698052868,
        "Eccentricity": 0.0,
        "Inclination(deg)": 45.0,
        "Latitude(deg)": -45.13795572681972,
        "Longitude(deg)": 66.28177384239576,
        "Mean Anomaly(deg)": -88.6517209807658,
        "RAAN(deg)": 254.99111550100562,
        "Satellite Name": "Constellation 1 1138",
        "Satellite Number": 1138,
        "Semi-Major Axis(m)": 7083131.272910544,
        "Time(s)": 157
    },
    {
        "Altitude(m)": 717874.8821681354,
        "Argument of Periapsis(deg)": 0.009471784986774088,
        "Eccentricity": 0.0,
        "Inclination(deg)": 45.0,
        "Latitude(deg)": -45.13649002508543,
        "Longitude(deg)": 66.36325235873389,
        "Mean Anomaly(deg)": -88.591019840516,
        "RAAN(deg)": 254.99105891184,
        "Satellite Name": "Constellation 1 1138",
        "Satellite Number": 1138,
        "Semi-Major Axis(m)": 7083131.272910544,
        "Time(s)": 158
    },
    {
        "Altitude(m)": 717874.2452446327,
        "Argument of Periapsis(deg)": 0.009531732993019492,
        "Eccentricity": 0.0,
        "Inclination(deg)": 45.0,
        "Latitude(deg)": -45.13496021497682,
        "Longitude(deg)": 66.44472640410422,
        "Mean Anomaly(deg)": -88.53031870026606,
        "RAAN(deg)": 254.99100232267443,
        "Satellite Name": "Constellation 1 1138",
        "Satellite Number": 1138,
        "Semi-Major Axis(m)": 7083131.272910544,
        "Time(s)": 159
    },
    {
        "Altitude(m)": 717873.5819433819,
        "Argument of Periapsis(deg)": 0.009591680999264898,
        "Eccentricity": 0.0,
        "Inclination(deg)": 45.0,
        "Latitude(deg)": -45.13336630326025,
        "Longitude(deg)": 66.52619578763755,
        "Mean Anomaly(deg)": -88.4696175600161,
        "RAAN(deg)": 254.99094573350888,
        "Satellite Name": "Constellation 1 1138",
        "Satellite Number": 1138,
        "Semi-Major Axis(m)": 7083131.272910544,
        "Time(s)": 160
    },
    {
        "Altitude(m)": 717872.8922668117,
        "Argument of Periapsis(deg)": 0.009651629005510304,
        "Eccentricity": 0.0,
        "Inclination(deg)": 45.0,
        "Latitude(deg)": -45.131708296984776,
        "Longitude(deg)": 66.60766031854794,
        "Mean Anomaly(deg)": -88.40891641976626,
        "RAAN(deg)": 254.99088914434333,
        "Satellite Name": "Constellation 1 1138",
        "Satellite Number": 1138,
        "Semi-Major Axis(m)": 7083131.272910544,
        "Time(s)": 161
    },
    {
        "Altitude(m)": 717872.1762174548,
        "Argument of Periapsis(deg)": 0.00971157701175571,
        "Eccentricity": 0.0,
        "Inclination(deg)": 45.0,
        "Latitude(deg)": -45.129986203481785,
        "Longitude(deg)": 66.68911980613652,
        "Mean Anomaly(deg)": -88.3482152795164,
        "RAAN(deg)": 254.99083255517778,
        "Satellite Name": "Constellation 1 1138",
        "Satellite Number": 1138,
        "Semi-Major Axis(m)": 7083131.272910544,
        "Time(s)": 162
    },
    {
        "Altitude(m)": 717871.4337979319,
        "Argument of Periapsis(deg)": 0.009771525018001118,
        "Eccentricity": 0.0,
        "Inclination(deg)": 45.0,
        "Latitude(deg)": -45.128200030365164,
        "Longitude(deg)": 66.77057389169767,
        "Mean Anomaly(deg)": -88.2875141392664,
        "RAAN(deg)": 254.99077596601217,
        "Satellite Name": "Constellation 1 1138",
        "Satellite Number": 1138,
        "Semi-Major Axis(m)": 7083131.272910544,
        "Time(s)": 163
    },
    {
        "Altitude(m)": 717870.6650109676,
        "Argument of Periapsis(deg)": 0.00983147302424652,
        "Eccentricity": 0.0,
        "Inclination(deg)": 45.0,
        "Latitude(deg)": -45.12634978553045,
        "Longitude(deg)": 66.85202272090902,
        "Mean Anomaly(deg)": -88.22681299901654,
        "RAAN(deg)": 254.9907193768466,
        "Satellite Name": "Constellation 1 1138",
        "Satellite Number": 1138,
        "Semi-Major Axis(m)": 7083131.272910544,
        "Time(s)": 164
    },
    {
        "Altitude(m)": 717869.8698593839,
        "Argument of Periapsis(deg)": 0.009891421030491928,
        "Eccentricity": 0.0,
        "Inclination(deg)": 45.0,
        "Latitude(deg)": -45.124435477155515,
        "Longitude(deg)": 66.93346593525537,
        "Mean Anomaly(deg)": -88.16611185876668,
        "RAAN(deg)": 254.99066278768106,
        "Satellite Name": "Constellation 1 1138",
        "Satellite Number": 1138,
        "Semi-Major Axis(m)": 7083131.272910544,
        "Time(s)": 165
    },
    {
        "Altitude(m)": 717869.0483460941,
        "Argument of Periapsis(deg)": 0.009951369036737332,
        "Eccentricity": 0.0,
        "Inclination(deg)": 45.0,
        "Latitude(deg)": -45.122457113699916,
        "Longitude(deg)": 67.01490334441826,
        "Mean Anomaly(deg)": -88.10541071851675,
        "RAAN(deg)": 254.99060619851548,
        "Satellite Name": "Constellation 1 1138",
        "Satellite Number": 1138,
        "Semi-Major Axis(m)": 7083131.272910544,
        "Time(s)": 166
    },
    {
        "Altitude(m)": 717868.2004741185,
        "Argument of Periapsis(deg)": 0.010011317042982738,
        "Eccentricity": 0.0,
        "Inclination(deg)": 45.0,
        "Latitude(deg)": -45.12041470390481,
        "Longitude(deg)": 67.09633475818278,
        "Mean Anomaly(deg)": -88.04470957826679,
        "RAAN(deg)": 254.99054960934993,
        "Satellite Name": "Constellation 1 1138",
        "Satellite Number": 1138,
        "Semi-Major Axis(m)": 7083131.272910544,
        "Time(s)": 167
    },
    {
        "Altitude(m)": 717867.3262465671,
        "Argument of Periapsis(deg)": 0.010071265049228144,
        "Eccentricity": 0.0,
        "Inclination(deg)": 45.0,
        "Latitude(deg)": -45.11830825679273,
        "Longitude(deg)": 67.17775998644066,
        "Mean Anomaly(deg)": -87.98400843801701,
        "RAAN(deg)": 254.99049302018432,
        "Satellite Name": "Constellation 1 1138",
        "Satellite Number": 1138,
        "Semi-Major Axis(m)": 7083131.272910544,
        "Time(s)": 168
    },
    {
        "Altitude(m)": 717866.4256666485,
        "Argument of Periapsis(deg)": 0.01013121305547355,
        "Eccentricity": 0.0,
        "Inclination(deg)": 45.0,
        "Latitude(deg)": -45.116137781667426,
        "Longitude(deg)": 67.25917883919479,
        "Mean Anomaly(deg)": -87.92330729776704,
        "RAAN(deg)": 254.99043643101876,
        "Satellite Name": "Constellation 1 1138",
        "Satellite Number": 1138,
        "Semi-Major Axis(m)": 7083131.272910544,
        "Time(s)": 169
    },
    {
        "Altitude(m)": 717865.4987376715,
        "Argument of Periapsis(deg)": 0.010191161061718957,
        "Eccentricity": 0.0,
        "Inclination(deg)": 45.0,
        "Latitude(deg)": -45.1139032881137,
        "Longitude(deg)": 67.34059112656098,
        "Mean Anomaly(deg)": -87.8626061575171,
        "RAAN(deg)": 254.9903798418532,
        "Satellite Name": "Constellation 1 1138",
        "Satellite Number": 1138,
        "Semi-Major Axis(m)": 7083131.272910544,
        "Time(s)": 170
    }
]